start=new Date('2022-09-14T00:00:00.000Z').valueOf();
sats=[{"COUNTRY_CODE":"US","NORAD_CAT_ID":"48575","MEAN_MOTION_DOT":"0.00001493","APOAPSIS":"548.108","TLE_LINE1":"1 48575U 21041Y   22256.72117034  .00001493  00000-0  11913-3 0  9994","SITE":"AFETR","OBJECT_ID":"2021-041Y","EPHEMERIS_TYPE":"0","GP_ID":"212534279","MEAN_MOTION_DDOT":"0.0000000000000","EPOCH":"2022-09-13T17:18:29.117376","CENTER_NAME":"EARTH","TLE_LINE2":"2 48575  53.0550  46.5064 0001244  81.8017 278.3113 15.06389329 73900","PERIOD":"95.593","OBJECT_TYPE":"PAYLOAD","FILE":"3573088","INCLINATION":"53.0550","LAUNCH_DATE":"2021-05-15","MEAN_ANOMALY":"278.3113","CLASSIFICATION_TYPE":"U","RA_OF_ASC_NODE":"46.5064","RCS_SIZE":"LARGE","MEAN_ELEMENT_THEORY":"SGP4","MEAN_MOTION":"15.06389329","SEMIMAJOR_AXIS":"6925.381","BSTAR":"0.00011913000000","REF_FRAME":"TEME","OBJECT_NAME":"STARLINK-2227","DECAY_DATE":null,"TIME_SYSTEM":"UTC","ELEMENT_SET_NO":"999","ECCENTRICITY":"0.00012440","ARG_OF_PERICENTER":"81.8017","REV_AT_EPOCH":"7390","PERIAPSIS":"546.385"},{"CENTER_NAME":"EARTH","EPOCH":"2022-09-13T20:30:08.721504","MEAN_MOTION_DDOT":"0.0000000000000","GP_ID":"212534029","EPHEMERIS_TYPE":"0","TLE_LINE2":"2 48576  53.0584  60.6017 0001446  76.3217 283.7933 15.06401318 73710","APOAPSIS":"548.211","MEAN_MOTION_DOT":"0.00000693","NORAD_CAT_ID":"48576","COUNTRY_CODE":"US","OBJECT_ID":"2021-041Z","TLE_LINE1":"1 48576U 21041Z   22256.85426761  .00000693  00000-0  65382-4 0  9990","SITE":"AFETR","MEAN_ELEMENT_THEORY":"SGP4","RCS_SIZE":"LARGE","PERIAPSIS":"546.208","REV_AT_EPOCH":"7371","ELEMENT_SET_NO":"999","ECCENTRICITY":"0.00014460","ARG_OF_PERICENTER":"76.3217","DECAY_DATE":null,"TIME_SYSTEM":"UTC","SEMIMAJOR_AXIS":"6925.345","BSTAR":"0.00006538200000","REF_FRAME":"TEME","OBJECT_NAME":"STARLINK-2228","MEAN_MOTION":"15.06401318","LAUNCH_DATE":"2021-05-15","INCLINATION":"53.0584","FILE":"3573088","OBJECT_TYPE":"PAYLOAD","PERIOD":"95.592","RA_OF_ASC_NODE":"60.6017","CLASSIFICATION_TYPE":"U","MEAN_ANOMALY":"283.7933"},{"SITE":"AFETR","TLE_LINE1":"1 48577U 21041AA  22256.79483707  .00001203  00000-0  99673-4 0  9995","OBJECT_ID":"2021-041AA","COUNTRY_CODE":"US","NORAD_CAT_ID":"48577","APOAPSIS":"548.164","MEAN_MOTION_DOT":"0.00001203","TLE_LINE2":"2 48577  53.0550  85.8580 0001365  74.1105 286.0035 15.06398236 73342","EPHEMERIS_TYPE":"0","GP_ID":"212535281","CENTER_NAME":"EARTH","EPOCH":"2022-09-13T19:04:33.922848","MEAN_MOTION_DDOT":"0.0000000000000","MEAN_ANOMALY":"286.0035","CLASSIFICATION_TYPE":"U","RA_OF_ASC_NODE":"85.8580","PERIOD":"95.592","FILE":"3573088","OBJECT_TYPE":"PAYLOAD","INCLINATION":"53.0550","LAUNCH_DATE":"2021-05-15","MEAN_MOTION":"15.06398236","TIME_SYSTEM":"UTC","DECAY_DATE":null,"OBJECT_NAME":"STARLINK-2231","SEMIMAJOR_AXIS":"6925.354","BSTAR":"0.00009967300000","REF_FRAME":"TEME","REV_AT_EPOCH":"7334","ELEMENT_SET_NO":"999","ECCENTRICITY":"0.00013650","ARG_OF_PERICENTER":"74.1105","PERIAPSIS":"546.274","RCS_SIZE":"LARGE","MEAN_ELEMENT_THEORY":"SGP4"},{"TLE_LINE1":"1 48578U 21041AB  22256.82438696  .00000247  00000-0  35465-4 0  9993","SITE":"AFETR","OBJECT_ID":"2021-041AB","COUNTRY_CODE":"US","NORAD_CAT_ID":"48578","MEAN_MOTION_DOT":"0.00000247","APOAPSIS":"548.343","TLE_LINE2":"2 48578  53.0551  86.2495 0001622  74.1568 285.9600 15.06398154 73348","EPHEMERIS_TYPE":"0","GP_ID":"212535028","MEAN_MOTION_DDOT":"0.0000000000000","EPOCH":"2022-09-13T19:47:07.033344","CENTER_NAME":"EARTH","MEAN_ANOMALY":"285.9600","CLASSIFICATION_TYPE":"U","RA_OF_ASC_NODE":"86.2495","PERIOD":"95.592","FILE":"3573088","OBJECT_TYPE":"PAYLOAD","INCLINATION":"53.0551","LAUNCH_DATE":"2021-05-15","MEAN_MOTION":"15.06398154","SEMIMAJOR_AXIS":"6925.354","BSTAR":"0.00003546500000","OBJECT_NAME":"STARLINK-2232","REF_FRAME":"TEME","DECAY_DATE":null,"TIME_SYSTEM":"UTC","ELEMENT_SET_NO":"999","ARG_OF_PERICENTER":"74.1568","ECCENTRICITY":"0.00016220","REV_AT_EPOCH":"7334","PERIAPSIS":"546.096","RCS_SIZE":"LARGE","MEAN_ELEMENT_THEORY":"SGP4"},{"CLASSIFICATION_TYPE":"U","MEAN_ANOMALY":"284.2001","RA_OF_ASC_NODE":"85.9231","OBJECT_TYPE":"PAYLOAD","FILE":"3573088","PERIOD":"95.592","LAUNCH_DATE":"2021-05-15","INCLINATION":"53.0552","SEMIMAJOR_AXIS":"6925.335","REF_FRAME":"TEME","BSTAR":"0.00010970000000","OBJECT_NAME":"STARLINK-2233","DECAY_DATE":null,"TIME_SYSTEM":"UTC","MEAN_MOTION":"15.06404574","PERIAPSIS":"546.211","ARG_OF_PERICENTER":"75.9146","ELEMENT_SET_NO":"999","ECCENTRICITY":"0.00014280","REV_AT_EPOCH":"7334","RCS_SIZE":"LARGE","MEAN_ELEMENT_THEORY":"SGP4","TLE_LINE1":"1 48579U 21041AC  22256.78377498  .00001353  00000-0  10970-3 0  9993","SITE":"AFETR","OBJECT_ID":"2021-041AC","COUNTRY_CODE":"US","MEAN_MOTION_DOT":"0.00001353","APOAPSIS":"548.188","NORAD_CAT_ID":"48579","TLE_LINE2":"2 48579  53.0552  85.9231 0001428  75.9146 284.2001 15.06404574 73340","GP_ID":"212533779","EPHEMERIS_TYPE":"0","EPOCH":"2022-09-13T18:48:38.158272","MEAN_MOTION_DDOT":"0.0000000000000","CENTER_NAME":"EARTH"},{"APOAPSIS":"548.021","MEAN_MOTION_DOT":"0.00004974","NORAD_CAT_ID":"48580","COUNTRY_CODE":"US","OBJECT_ID":"2021-041AD","TLE_LINE1":"1 48580U 21041AD  22256.81647386  .00004974  00000-0  35254-3 0  9999","SITE":"AFETR","CENTER_NAME":"EARTH","EPOCH":"2022-09-13T19:35:43.341504","MEAN_MOTION_DDOT":"0.0000000000000","GP_ID":"212534530","EPHEMERIS_TYPE":"0","TLE_LINE2":"2 48580  53.0544  60.7805 0001193  80.0981 280.0143 15.06406230 73706","LAUNCH_DATE":"2021-05-15","INCLINATION":"53.0544","OBJECT_TYPE":"PAYLOAD","FILE":"3573088","PERIOD":"95.592","RA_OF_ASC_NODE":"60.7805","CLASSIFICATION_TYPE":"U","MEAN_ANOMALY":"280.0143","MEAN_ELEMENT_THEORY":"SGP4","RCS_SIZE":"LARGE","PERIAPSIS":"546.368","REV_AT_EPOCH":"7370","ARG_OF_PERICENTER":"80.0981","ELEMENT_SET_NO":"999","ECCENTRICITY":"0.00011930","DECAY_DATE":null,"TIME_SYSTEM":"UTC","BSTAR":"0.00035254000000","SEMIMAJOR_AXIS":"6925.329","OBJECT_NAME":"STARLINK-2234","REF_FRAME":"TEME","MEAN_MOTION":"15.06406230"},{"OBJECT_ID":"2021-041AE","SITE":"AFETR","TLE_LINE1":"1 48581U 21041AE  22256.84413670  .00000873  00000-0  77479-4 0  9990","NORAD_CAT_ID":"48581","APOAPSIS":"548.148","MEAN_MOTION_DOT":"0.00000873","COUNTRY_CODE":"US","TLE_LINE2":"2 48581  53.0555  50.6443 0001336  84.2974 275.8167 15.06396923 73853","CENTER_NAME":"EARTH","MEAN_MOTION_DDOT":"0.0000000000000","EPOCH":"2022-09-13T20:15:33.410880","EPHEMERIS_TYPE":"0","GP_ID":"212534781","RA_OF_ASC_NODE":"50.6443","MEAN_ANOMALY":"275.8167","CLASSIFICATION_TYPE":"U","INCLINATION":"53.0555","LAUNCH_DATE":"2021-05-15","PERIOD":"95.592","OBJECT_TYPE":"PAYLOAD","FILE":"3573088","REV_AT_EPOCH":"7385","ECCENTRICITY":"0.00013360","ELEMENT_SET_NO":"999","ARG_OF_PERICENTER":"84.2974","PERIAPSIS":"546.298","MEAN_MOTION":"15.06396923","TIME_SYSTEM":"UTC","DECAY_DATE":null,"REF_FRAME":"TEME","SEMIMAJOR_AXIS":"6925.358","BSTAR":"0.00007747900000","OBJECT_NAME":"STARLINK-2235","MEAN_ELEMENT_THEORY":"SGP4","RCS_SIZE":"LARGE"},{"RA_OF_ASC_NODE":"51.4766","CLASSIFICATION_TYPE":"U","MEAN_ANOMALY":"273.1527","LAUNCH_DATE":"2021-05-15","INCLINATION":"53.0560","FILE":"3573088","OBJECT_TYPE":"PAYLOAD","PERIOD":"95.592","PERIAPSIS":"546.196","REV_AT_EPOCH":"7382","ELEMENT_SET_NO":"999","ARG_OF_PERICENTER":"86.9629","ECCENTRICITY":"0.00014610","DECAY_DATE":null,"TIME_SYSTEM":"UTC","SEMIMAJOR_AXIS":"6925.343","BSTAR":"0.00005260100000","REF_FRAME":"TEME","OBJECT_NAME":"STARLINK-2236","MEAN_MOTION":"15.06401837","MEAN_ELEMENT_THEORY":"SGP4","RCS_SIZE":"LARGE","OBJECT_ID":"2021-041AF","SITE":"AFETR","TLE_LINE1":"1 48582U 21041AF  22256.69302840  .00000502  00000-0  52601-4 0  9999","APOAPSIS":"548.220","MEAN_MOTION_DOT":"0.00000502","NORAD_CAT_ID":"48582","COUNTRY_CODE":"US","TLE_LINE2":"2 48582  53.0560  51.4766 0001461  86.9629 273.1527 15.06401837 73821","CENTER_NAME":"EARTH","MEAN_MOTION_DDOT":"0.0000000000000","EPOCH":"2022-09-13T16:37:57.653760","GP_ID":"212535529","EPHEMERIS_TYPE":"0"},{"RCS_SIZE":"LARGE","MEAN_ELEMENT_THEORY":"SGP4","DECAY_DATE":null,"TIME_SYSTEM":"UTC","SEMIMAJOR_AXIS":"6925.347","BSTAR":"0.00008725100000","REF_FRAME":"TEME","OBJECT_NAME":"STARLINK-2237","MEAN_MOTION":"15.06400410","PERIAPSIS":"546.198","REV_AT_EPOCH":"7319","ELEMENT_SET_NO":"999","ARG_OF_PERICENTER":"84.4150","ECCENTRICITY":"0.00014650","FILE":"3573088","OBJECT_TYPE":"PAYLOAD","PERIOD":"95.592","LAUNCH_DATE":"2021-05-15","INCLINATION":"53.0541","CLASSIFICATION_TYPE":"U","MEAN_ANOMALY":"275.7006","RA_OF_ASC_NODE":"96.2984","GP_ID":"212534280","EPHEMERIS_TYPE":"0","CENTER_NAME":"EARTH","MEAN_MOTION_DDOT":"0.0000000000000","EPOCH":"2022-09-13T16:45:13.858848","TLE_LINE2":"2 48583  53.0541  96.2984 0001465  84.4150 275.7006 15.06400410 73192","COUNTRY_CODE":"US","MEAN_MOTION_DOT":"0.00001018","APOAPSIS":"548.227","NORAD_CAT_ID":"48583","SITE":"AFETR","TLE_LINE1":"1 48583U 21041AG  22256.69807707  .00001018  00000-0  87251-4 0  9994","OBJECT_ID":"2021-041AG"},{"RA_OF_ASC_NODE":"96.7264","CLASSIFICATION_TYPE":"U","MEAN_ANOMALY":"297.9689","LAUNCH_DATE":"2021-05-15","INCLINATION":"53.0550","FILE":"3573088","OBJECT_TYPE":"PAYLOAD","PERIOD":"95.592","PERIAPSIS":"546.165","ARG_OF_PERICENTER":"62.1454","ELEMENT_SET_NO":"999","ECCENTRICITY":"0.00015140","REV_AT_EPOCH":"7317","SEMIMAJOR_AXIS":"6925.349","BSTAR":"0.00013491000000","REF_FRAME":"TEME","OBJECT_NAME":"STARLINK-2238","DECAY_DATE":null,"TIME_SYSTEM":"UTC","MEAN_MOTION":"15.06399918","MEAN_ELEMENT_THEORY":"SGP4","RCS_SIZE":"LARGE","OBJECT_ID":"2021-041AH","TLE_LINE1":"1 48584U 21041AH  22256.60592959  .00001729  00000-0  13491-3 0  9999","SITE":"AFETR","MEAN_MOTION_DOT":"0.00001729","APOAPSIS":"548.262","NORAD_CAT_ID":"48584","COUNTRY_CODE":"US","TLE_LINE2":"2 48584  53.0550  96.7264 0001514  62.1454 297.9689 15.06399918 73175","EPOCH":"2022-09-13T14:32:32.316576","MEAN_MOTION_DDOT":"0.0000000000000","CENTER_NAME":"EARTH","GP_ID":"212534030","EPHEMERIS_TYPE":"0"}];
